NORAD_CAT_ID,OBJECT_NAME,OBJECT_TYPE,EPOCH,MEAN_MOTION,ECCENTRICITY,INCLINATION,RA_OF_ASC_NODE,ARG_OF_PERICENTER,MEAN_ANOMALY,BSTAR,MEAN_MOTION_DOT,MEAN_MOTION_DDOT,TLE_LINE0,TLE_LINE1,TLE_LINE2,SEMIMAJOR_AXIS,PERIOD,APOGEE,PERIGEE,DECAYED
50161.0,STARLINK-3304,PAYLOAD,2024-03-22 15:45:39,15.08850807,0.000139,53.2163,238.0077,93.7687,266.3464,0.0002817,4.199e-05,0.0,0 STARLINK-3304,1 50161U 21125F   24082.65670341  .00004199  00000-0  28170-3 0  9996,2 50161  53.2163 238.0077 0001390  93.7687 266.3464 15.08850807128201,6917.847,95.437,540.674,538.751,0.0
50161.0,STARLINK-3304,PAYLOAD,2024-03-23 10:50:17,15.08837194,0.0001727,53.2157,234.4358,108.6736,251.4444,-5.0799e-05,-1.096e-05,0.0,0 STARLINK-3304,1 50161U 21125F   24083.45159090 -.00001096  00000-0 -50799-4 0  9996,2 50161  53.2157 234.4358 0001727 108.6736 251.4444 15.08837194127847,6917.889,95.438,540.949,538.559,0.0
50161.0,STARLINK-3304,PAYLOAD,2024-03-23 18:47:12,15.08843448,0.0001379,53.2162,232.9499,98.3761,261.7387,4.4326e-05,4.18e-06,0.0,0 STARLINK-3304,1 50161U 21125F   24083.78278831  .00000418  00000-0  44326-4 0  9991,2 50161  53.2162 232.9499 0001379  98.3761 261.7387 15.08843448128376,6917.87,95.437,540.689,538.781,0.0
50161.0,STARLINK-3304,PAYLOAD,2024-03-24 13:51:50,15.08849833,0.0001498,53.2167,229.3797,102.3407,257.7753,0.00010217,1.339e-05,0.0,0 STARLINK-3304,1 50161U 21125F   24084.57766514  .00001339  00000-0  10217-3 0  9993,2 50161  53.2167 229.3797 0001498 102.3407 257.7753 15.08849833128496,6917.85,95.437,540.752,538.679,0.0
50161.0,STARLINK-3304,PAYLOAD,2024-03-24 17:02:36,15.08859303,0.0001379,53.2157,228.7852,87.8226,272.2924,0.00043714,6.68e-05,0.0,0 STARLINK-3304,1 50161U 21125F   24084.71014135  .00006680  00000-0  43714-3 0  9996,2 50161  53.2157 228.7852 0001379  87.8226 272.2924 15.08859303128039,6917.821,95.436,540.64,538.732,0.0
50161.0,STARLINK-3304,PAYLOAD,2024-03-25 02:34:55,15.08852953,0.0001308,53.2163,227.0006,103.0622,257.0516,0.00043549,6.652e-05,0.0,0 STARLINK-3304,1 50161U 21125F   24085.10758574  .00006652  00000-0  43549-3 0  9997,2 50161  53.2163 227.0006 0001308 103.0622 257.0516 15.08852953128090,6917.841,95.437,540.611,538.801,0.0
50161.0,STARLINK-3304,PAYLOAD,2024-03-25 13:42:37,15.08841218,0.0002004,53.2168,224.9182,92.5407,267.5815,9.5919e-05,1.239e-05,0.0,0 STARLINK-3304,1 50161U 21125F   24085.57127060  .00001239  00000-0  95919-4 0  9993,2 50161  53.2168 224.9182 0002004  92.5407 267.5815 15.08841218128161,6917.877,95.437,541.128,538.355,0.0
50161.0,STARLINK-3304,PAYLOAD,2024-03-25 16:53:23,15.08851092,0.0001508,53.217,224.3247,91.5209,268.5956,0.00024256,3.576e-05,0.0,0 STARLINK-3304,1 50161U 21125F   24085.70374626  .00003576  00000-0  24256-3 0  9991,2 50161  53.2170 224.3247 0001508  91.5209 268.5956 15.08851092128660,6917.846,95.437,540.755,538.668,0.0
50161.0,STARLINK-3304,PAYLOAD,2024-03-26 13:33:26,15.08826711,0.0001548,53.2169,220.4602,92.3487,267.7683,-0.00022919,-3.932e-05,0.0,0 STARLINK-3304,1 50161U 21125F   24086.56488501 -.00003932  00000-0 -22919-3 0  9996,2 50161  53.2169 220.4602 0001548  92.3487 267.7683 15.08826711128311,6917.921,95.438,540.857,538.715,0.0
50161.0,STARLINK-3304,PAYLOAD,2024-03-26 15:08:49,15.0882418,0.0001715,53.2171,220.1633,74.8048,285.3134,-0.00019499,-3.389e-05,0.0,0 STARLINK-3304,1 50161U 21125F   24086.63112591 -.00003389  00000-0 -19499-3 0  9992,2 50161  53.2171 220.1633 0001715  74.8048 285.3134 15.08824180128808,6917.929,95.439,540.98,538.607,0.0
50161.0,STARLINK-3304,PAYLOAD,2024-03-27 13:24:13,15.08839606,0.0001484,53.2168,216.0042,68.1278,291.9872,0.00035954,5.439e-05,0.0,0 STARLINK-3304,1 50161U 21125F   24087.55848781  .00005439  00000-0  35954-3 0  9991,2 50161  53.2168 216.0042 0001484  68.1278 291.9872 15.08839606128469,6917.882,95.438,540.773,538.72,0.0
50161.0,STARLINK-3304,PAYLOAD,2024-03-27 14:59:36,15.08848174,0.0001527,53.2166,215.7027,84.1627,275.9539,0.00044091,6.738e-05,0.0,0 STARLINK-3304,1 50161U 21125F   24087.62472358  .00006738  00000-0  44091-3 0  9997,2 50161  53.2166 215.7027 0001527  84.1627 275.9539 15.08848174128956,6917.855,95.437,540.777,538.664,0.0
50161.0,STARLINK-3304,PAYLOAD,2024-03-28 11:39:37,15.08849023,0.00014,53.2171,211.8384,68.4761,291.638,0.00035253,5.328e-05,0.0,0 STARLINK-3304,1 50161U 21125F   24088.48584599  .00005328  00000-0  35253-3 0  9997,2 50161  53.2171 211.8384 0001400  68.4761 291.6380 15.08849023128604,6917.853,95.437,540.686,538.749,0.0
50161.0,STARLINK-3304,PAYLOAD,2024-03-29 13:05:46,15.08851361,0.0001561,53.2163,207.0809,65.059,295.0564,8.5809e-05,1.078e-05,0.0,0 STARLINK-3304,1 50161U 21125F   24089.54568033  .00001078  00000-0  85809-4 0  9991,2 50161  53.2163 207.0809 0001561  65.0590 295.0564 15.08851361128762,6917.846,95.437,540.791,538.631,0.0
50161.0,STARLINK-3304,PAYLOAD,2024-03-29 14:41:09,15.08854607,0.0001414,53.2161,206.7822,86.533,273.5824,0.00011737,1.581e-05,0.0,0 STARLINK-3304,1 50161U 21125F   24089.61191682  .00001581  00000-0  11737-3 0  9998,2 50161  53.2161 206.7822 0001414  86.5330 273.5824 15.08854607129259,6917.836,95.437,540.679,538.723,0.0
50161.0,STARLINK-3304,PAYLOAD,2024-03-30 12:56:33,15.08842096,0.0001461,53.218,202.6245,94.9229,265.193,4.2615e-05,3.9e-06,0.0,0 STARLINK-3304,1 50161U 21125F   24090.53928026  .00000390  00000-0  42615-4 0  9998,2 50161  53.2180 202.6245 0001461  94.9229 265.1930 15.08842096128912,6917.874,95.437,540.75,538.728,0.0
50161.0,STARLINK-3304,PAYLOAD,2024-03-30 14:31:56,15.08844665,0.0001668,53.2182,202.3271,109.0337,251.0836,7.8693e-05,9.65e-06,0.0,0 STARLINK-3304,1 50161U 21125F   24090.60551834  .00000965  00000-0  78693-4 0  9998,2 50161  53.2182 202.3271 0001668 109.0337 251.0836 15.08844665129405,6917.866,95.437,540.885,538.577,0.0
50161.0,STARLINK-3304,PAYLOAD,2024-03-31 14:22:44,15.08840474,0.0001373,53.2173,197.8658,99.8582,260.2565,5.3998e-05,5.72e-06,0.0,0 STARLINK-3304,1 50161U 21125F   24091.59912207  .00000572  00000-0  53998-4 0  9997,2 50161  53.2173 197.8658 0001373  99.8582 260.2565 15.08840474129554,6917.879,95.438,540.694,538.794,0.0
50161.0,STARLINK-3304,PAYLOAD,2024-03-31 17:33:30,15.08846887,0.0001739,53.2187,197.2699,101.5883,258.5304,0.00010924,1.451e-05,0.0,0 STARLINK-3304,1 50161U 21125F   24091.73159732  .00001451  00000-0  10924-3 0  9997,2 50161  53.2187 197.2699 0001739 101.5883 258.5304 15.08846887129093,6917.859,95.437,540.927,538.521,0.0
50161.0,STARLINK-3304,PAYLOAD,2024-03-31 23:55:03,15.08826093,0.0002165,53.2183,196.0793,91.5408,268.5832,-0.00013237,-2.394e-05,0.0,0 STARLINK-3304,1 50161U 21125F   24091.99656977 -.00002394  00000-0 -13237-3 0  9997,2 50161  53.2183 196.0793 0002165  91.5408 268.5832 15.08826093129135,6917.923,95.438,541.286,538.29,0.0
50161.0,STARLINK-3304,PAYLOAD,2024-04-01 14:13:31,15.08836358,0.0001477,53.2175,193.4016,94.8237,265.2924,2.2316e-05,6.7e-07,0.0,0 STARLINK-3304,1 50161U 21125F   24092.59272950  .00000067  00000-0  22316-4 0  9991,2 50161  53.2175 193.4016 0001477  94.8237 265.2924 15.08836358129700,6917.892,95.438,540.778,538.735,0.0
50161.0,STARLINK-3304,PAYLOAD,2024-04-01 15:48:54,15.08843712,0.0001465,53.2186,193.1069,92.5499,267.5661,8.8434e-05,1.12e-05,0.0,0 STARLINK-3304,1 50161U 21125F   24092.65896316  .00001120  00000-0  88434-4 0  9990,2 50161  53.2186 193.1069 0001465  92.5499 267.5661 15.08843712129232,6917.869,95.437,540.748,538.721,0.0
50161.0,STARLINK-3304,PAYLOAD,2024-04-02 12:28:55,15.08839815,0.0001376,53.2172,189.2394,90.8311,269.2838,0.00013202,1.814e-05,0.0,0 STARLINK-3304,1 50161U 21125F   24093.52008419  .00001814  00000-0  13202-3 0  9996,2 50161  53.2172 189.2394 0001376  90.8311 269.2838 15.08839815129840,6917.881,95.438,540.698,538.794,0.0
50161.0,STARLINK-3304,PAYLOAD,2024-04-02 14:04:17,15.08849765,0.0001421,53.2173,188.9414,88.4202,271.6953,8.8092e-05,1.115e-05,0.0,0 STARLINK-3304,1 50161U 21125F   24093.58631941  .00001115  00000-0  88092-4 0  9998,2 50161  53.2173 188.9414 0001421  88.4202 271.6953 15.08849765129854,6917.851,95.437,540.699,538.733,0.0
50161.0,STARLINK-3304,PAYLOAD,2024-04-03 05:58:09,15.08836191,0.0001291,53.2169,185.9687,94.7719,265.342,0.00014475,2.016e-05,0.0,0 STARLINK-3304,1 50161U 21125F   24094.24872548  .00002016  00000-0  14475-3 0  9996,2 50161  53.2169 185.9687 0001291  94.7719 265.3420 15.08836191129472,6917.892,95.438,540.65,538.864,0.0
50161.0,STARLINK-3304,PAYLOAD,2024-04-03 12:19:42,15.08835899,0.0001544,53.2175,184.7778,96.2834,263.8334,9.9057e-05,1.289e-05,0.0,0 STARLINK-3304,1 50161U 21125F   24094.51368797  .00001289  00000-0  99057-4 0  9993,2 50161  53.2175 184.7778 0001544  96.2834 263.8334 15.08835899129991,6917.893,95.438,540.826,538.69,0.0
50161.0,STARLINK-3304,PAYLOAD,2024-04-03 15:30:28,15.08843179,0.0001414,53.217,184.1832,97.0499,263.0654,5.5675e-05,5.98e-06,0.0,0 STARLINK-3304,1 50161U 21125F   24094.64616413  .00000598  00000-0  55675-4 0  9998,2 50161  53.2170 184.1832 0001414  97.0499 263.0654 15.08843179130015,6917.871,95.437,540.714,538.757,0.0
50161.0,STARLINK-3304,PAYLOAD,2024-04-04 12:10:29,15.08845457,0.0001301,53.2161,180.317,88.7315,271.3826,-2.3603e-05,-6.64e-06,0.0,0 STARLINK-3304,1 50161U 21125F   24095.50728384 -.00000664  00000-0 -23603-4 0  9997,2 50161  53.2161 180.3170 0001301  88.7315 271.3826 15.08845457129660,6917.864,95.437,540.629,538.829,0.0
50161.0,STARLINK-3304,PAYLOAD,2024-04-05 12:01:15,15.08843694,0.0001321,53.2162,175.8571,90.17,269.9444,0.00013015,1.784e-05,0.0,0 STARLINK-3304,1 50161U 21125F   24096.50087834  .00001784  00000-0  13015-3 0  9993,2 50161  53.2162 175.8571 0001321  90.1700 269.9444 15.08843694130293,6917.869,95.437,540.648,538.82,0.0
50161.0,STARLINK-3304,PAYLOAD,2024-04-06 11:52:03,15.08838653,0.0001328,53.2161,171.3956,86.0102,274.1042,7.4738e-06,-1.69e-06,0.0,0 STARLINK-3304,1 50161U 21125F   24097.49448463 -.00000169  00000-0  74738-5 0  9999,2 50161  53.2161 171.3956 0001328  86.0102 274.1042 15.08838653129960,6917.885,95.438,540.668,538.831,0.0
